OBJECT_NAME,OBJECT_ID,EPOCH,MEAN_MOTION,ECCENTRICITY,INCLINATION,RA_OF_ASC_NODE,ARG_OF_PERICENTER,MEAN_ANOMALY,EPHEMERIS_TYPE,CLASSIFICATION_TYPE,NORAD_CAT_ID,ELEMENT_SET_NO,REV_AT_EPOCH,BSTAR,MEAN_MOTION_DOT,MEAN_MOTION_DDOT
SAUDISAT 2,2004-025F,2026-06-17T12:14:05.276256,14.56684071,.00235784,98.5508,168.5000,297.2213,62.6582,0,U,28371,999,16579,.52561834E-4,.186E-5,0
COSMOS 2407,2004-028A,2026-06-17T19:01:40.688256,13.76334764,.0037845,82.9607,74.3856,250.1793,170.2978,0,U,28380,999,9996,.46901E-4,.61E-6,0
COSMOS 2414,2005-002A,2026-06-17T18:04:22.986048,13.87926561,.003945,82.9498,43.2186,329.6441,30.2438,0,U,28521,999,8389,.28557E-4,.5E-6,0
INMARSAT 4-F1,2005-009A,2026-06-17T18:56:57.482016,1.00270902,.0002559,5.1694,42.7638,44.0932,281.5313,0,U,28628,999,7767,0,.25E-6,0
SJ-7,2005-024A,2026-06-17T14:48:06.825024,15.21549194,.0016305,97.7279,198.7320,36.6891,323.5457,0,U,28737,999,14809,.29187E-3,.6526E-4,0
CUBESAT XI-V,2005-043F,2026-06-16T09:12:06.602400,14.72629782,.00135859,98.2985,322.9884,203.3717,156.6874,0,U,28895,999,10163,.19648745E-3,.12E-4,0
HINODE (SOLAR-B),2006-041A,2026-06-17T15:53:42.231840,14.68623570,.0016001,98.0547,184.8078,288.1134,71.8328,0,U,29479,999,5494,.96583E-4,.513E-5,0
SHIJIAN-6 02B (SJ-6 02B),2006-046B,2026-06-17T21:06:29.808288,15.01378209,.00154,97.7153,197.9339,58.4353,301.8373,0,U,29506,999,7084,.76912E-4,.933E-5,0
DMSP 5D-3 F17 (USA 191),2006-050A,2026-06-17T19:20:46.867200,14.14993052,.0011153,98.7378,175.3635,57.7719,302.4534,0,U,29522,999,1251,.11871E-4,-.2E-6,0
LAPAN-TUBSAT,2007-001A,2026-06-17T20:38:57.973344,14.85948150,.0011903,98.1337,168.0994,177.1314,182.9971,0,U,29709,999,5125,-.35234E-4,-.366E-5,0
HAIYANG-1B,2007-010A,2026-06-17T11:51:56.842560,14.31026969,.00130327,98.3495,150.3277,195.3754,164.7035,0,U,31113,999,68,.41814656E-4,.68E-6,0
COSMO-SKYMED 2,2007-059A,2026-06-17T20:04:03.514656,14.82155429,.0001345,97.8886,352.4246,87.8712,272.2655,0,U,32376,999,210,.43424E-4,.293E-5,0
CARTOSAT-2A,2008-021A,2026-06-17T20:35:52.597824,14.79239383,.0013203,97.7630,217.5440,106.6538,253.6125,0,U,32783,999,97890,.55035E-4,.359E-5,0
CUTE-1.7+APD II (CO-65),2008-021C,2026-06-17T20:17:21.774624,15.09456181,.0009682,97.8273,150.2775,36.8375,323.3517,0,U,32785,999,98529,.26495E-3,.4178E-4,0
SEEDS II (CO-66),2008-021J,2026-06-17T12:39:16.219584,15.32761121,.0001013,97.7515,166.4411,2.1401,357.9844,0,U,32791,999,98734,.46558E-3,.14659E-3,0
YUBILEINY (RS30),2008-025A,2026-06-17T21:40:40.184832,12.43179340,.0018831,82.5036,354.9945,312.2719,47.6763,0,U,32953,999,81978,-.17065E-3,-.14E-6,0
FENGYUN 3A,2008-026A,2026-06-17T19:44:36.909024,14.19571285,.0009615,98.6883,109.6439,121.9890,238.2222,0,U,32958,999,93549,.46601E-4,.55E-6,0
HUANJING 1A (HJ-1A),2008-041A,2026-06-17T21:47:33.719424,14.83986326,.0019995,97.6678,154.7181,132.5641,227.7265,0,U,33320,999,95851,.1019E-3,.799E-5,0
HUANJING 1B (HJ-1B),2008-041B,2026-06-17T21:03:29.683296,14.83319344,.0036105,97.6515,157.8587,178.5880,181.5443,0,U,33321,999,95851,.12479E-3,.981E-5,0
SHIJIAN-6 03A (SJ-6 03A),2008-053A,2026-06-17T20:09:58.566816,15.17168325,.0011631,97.8401,202.1836,18.0786,342.0858,0,U,33408,999,96306,.16931E-3,.3293E-4,0
SHIJIAN-6 03B (SJ-6 03B),2008-053B,2026-06-17T21:33:09.711648,15.04307789,.0020793,97.8568,188.8016,42.7893,317.4946,0,U,33409,999,96285,.39995E-4,.494E-5,0
CHUANGXIN 1-02 (CX-1-02),2008-056B,2026-06-17T20:34:24.367008,14.30152510,.0015013,98.6128,195.1173,134.5671,225.6739,0,U,33434,999,91871,-.45039E-4,-.16E-5,0
