SAUDISAT 2              
1 28371U 04025F   26168.50978329  .00000186  00000+0  52562-4 0  9996
2 28371  98.5508 168.5000 0023578 297.2213  62.6582 14.56684071165798
COSMOS 2407             
1 28380U 04028A   26168.79283204  .00000061  00000+0  46901-4 0  9993
2 28380  82.9607  74.3856 0037845 250.1793 170.2978 13.76334764 99963
COSMOS 2414             
1 28521U 05002A   26168.75304382  .00000050  00000+0  28557-4 0  9995
2 28521  82.9498  43.2186 0039450 329.6441  30.2438 13.87926561 83890
INMARSAT 4-F1           
1 28628U 05009A   26168.78955419  .00000025  00000+0  00000+0 0  9996
2 28628   5.1694  42.7638 0002559  44.0932 281.5313  1.00270902 77677
SJ-7                    
1 28737U 05024A   26168.61674566  .00006526  00000+0  29187-3 0  9990
2 28737  97.7279 198.7320 0016305  36.6891 323.5457 15.21549194148090
CUBESAT XI-V            
1 28895U 05043F   26167.38340975  .00001200  00000+0  19649-3 0  9999
2 28895  98.2985 322.9884 0013585 203.3717 156.6874 14.72629782101632
HINODE (SOLAR-B)        
1 29479U 06041A   26168.66229435  .00000513  00000+0  96583-4 0  9995
2 29479  98.0547 184.8078 0016001 288.1134  71.8328 14.68623570 54940
SHIJIAN-6 02B (SJ-6 02B)
1 29506U 06046B   26168.87951167  .00000933  00000+0  76912-4 0  9998
2 29506  97.7153 197.9339 0015400  58.4353 301.8373 15.01378209 70845
DMSP 5D-3 F17 (USA 191) 
1 29522U 06050A   26168.80609800 -.00000020  00000+0  11871-4 0  9999
2 29522  98.7378 175.3635 0011153  57.7719 302.4534 14.14993052 12519
LAPAN-TUBSAT            
1 29709U 07001A   26168.86039321 -.00000366  00000+0 -35234-4 0  9997
2 29709  98.1337 168.0994 0011903 177.1314 182.9971 14.85948150 51250
HAIYANG-1B              
1 31113U 07010A   26168.49440790  .00000068  00000+0  41815-4 0  9993
2 31113  98.3495 150.3277 0013032 195.3754 164.7035 14.31026969   688
COSMO-SKYMED 2          
1 32376U 07059A   26168.83615179  .00000293  00000+0  43424-4 0  9999
2 32376  97.8886 352.4246 0001345  87.8712 272.2655 14.82155429  2104
CARTOSAT-2A             
1 32783U 08021A   26168.85824766  .00000359  00000+0  55035-4 0  9991
2 32783  97.7630 217.5440 0013203 106.6538 253.6125 14.79239383978904
CUTE-1.7+APD II (CO-65) 
1 32785U 08021C   26168.84539091  .00004178  00000+0  26495-3 0  9996
2 32785  97.8273 150.2775 0009682  36.8375 323.3517 15.09456181985294
SEEDS II (CO-66)        
1 32791U 08021J   26168.52727106  .00014659  00000+0  46558-3 0  9991
2 32791  97.7515 166.4411 0001013   2.1401 357.9844 15.32761121987344
YUBILEINY (RS30)        
1 32953U 08025A   26168.90324288 -.00000014  00000+0 -17065-3 0  9994
2 32953  82.5036 354.9945 0018831 312.2719  47.6763 12.43179340819783
FENGYUN 3A              
1 32958U 08026A   26168.82264941  .00000055  00000+0  46601-4 0  9992
2 32958  98.6883 109.6439 0009615 121.9890 238.2222 14.19571285935498
HUANJING 1A (HJ-1A)     
1 33320U 08041A   26168.90802916  .00000799  00000+0  10190-3 0  9990
2 33320  97.6678 154.7181 0019995 132.5641 227.7265 14.83986326958517
HUANJING 1B (HJ-1B)     
1 33321U 08041B   26168.87742689  .00000981  00000+0  12479-3 0  9992
2 33321  97.6515 157.8587 0036105 178.5880 181.5443 14.83319344958514
SHIJIAN-6 03A (SJ-6 03A)
1 33408U 08053A   26168.84026119  .00003293  00000+0  16931-3 0  9997
2 33408  97.8401 202.1836 0011631  18.0786 342.0858 15.17168325963066
SHIJIAN-6 03B (SJ-6 03B)
1 33409U 08053B   26168.89802907  .00000494  00000+0  39995-4 0  9996
2 33409  97.8568 188.8016 0020793  42.7893 317.4946 15.04307789962858
CHUANGXIN 1-02 (CX-1-02)
1 33434U 08056B   26168.85722647 -.00000160  00000+0 -45039-4 0  9993
2 33434  98.6128 195.1173 0015013 134.5671 225.6739 14.30152510918719
